TIANLIAN 1-01           
1 32779U 08019A   18015.89651087 -.00000139  00000-0  10000-3 0  9993
2 32779   2.8099  75.0558 0038390 231.8372 211.1712  1.00271051 35647
AMOS-3                  
1 32794U 08022A   18016.36365536 -.00000033  00000-0  00000+0 0  9996
2 32794   0.0040 327.9738 0002397 332.9354 301.6383  1.00273329 35627
GALAXY 18 (G-18)        
1 32951U 08024A   18015.02375863  .00000027  00000-0  00000-0 0  9992
2 32951   0.0242  48.2332 0002763 254.9916  56.7488  1.00270719 15074
CHINASAT 9 (ZX 9)       
1 33051U 08028A   18016.70670920 -.00000245  00000-0  00000+0 0  9998
2 33051   0.0304  60.1006 0001494 230.3606 172.2006  1.00270256 35191
SKYNET 5C               
1 33055U 08030A   18015.82717414 -.00000138  00000-0  00000+0 0  9998
2 33055   0.0616 354.7195 0003302 298.2268 102.2103  1.00272438 35071
TURKSAT 3A              
1 33056U 08030B   18016.87271524  .00000148  00000-0  00000+0 0  9992
2 33056   0.0492  82.6406 0003072 230.6708 159.0870  1.00274174 35260
INTELSAT 25 (IS-25)     
1 33153U 08034A   18015.76754355 -.00000222  00000-0  00000+0 0  9993
2 33153   0.0159  54.9986 0002663 234.5030  70.4697  1.00269574 34810
BADR-6                  
1 33154U 08034B   18016.17063108  .00000146  00000-0  00000+0 0  9993
2 33154   0.0492  28.7369 0003461 318.3320 215.9008  1.00273348 34923
ECHOSTAR 11             
1 33207U 08035A   18014.98773019 -.00000055  00000-0  00000-0 0  9990
2 33207   0.0504 254.6033 0002384  43.0500  62.3057  1.00271806 20424
SUPERBIRD-C2            
1 33274U 08038A   18016.20131711 -.00000249  00000-0  00000+0 0  9995
2 33274   0.0144  81.9640 0001723 253.4992 356.5211  1.00271248 34550
AMC-21                  
1 33275U 08038B   18015.56226567  .00000038  00000-0  00000-0 0  9994
2 33275   0.0399 307.8359 0002265   7.4840 237.1299  1.00273198 34636
INMARSAT 4-F3           
1 33278U 08039A   18015.49039038 -.00000137  00000-0  00000-0 0  9996
2 33278   3.0259   3.6070 0003082 296.3367 253.4807  1.00270879 34436
NIMIQ 4                 
1 33373U 08044A   18015.77962838 -.00000218  00000-0  00000-0 0  9992
2 33373   0.0193  68.6148 0002496 236.6358   8.5669  1.00270479 34147
GALAXY 19 (G-19)        
1 33376U 08045A   18014.95173973 -.00000137  00000-0  00000-0 0  9999
2 33376   0.0278 101.9145 0002743 198.5482  59.4934  1.00271593 34116
VENESAT-1               
1 33414U 08055A   18015.77962838 -.00000235  00000-0  00000-0 0  9999
2 33414   0.0038  94.6151 0002499 208.6862  14.4819  1.00266589 33853
ASTRA 1M                
1 33436U 08057A   18015.85188140  .00000121  00000-0  00000-0 0  9993
2 33436   0.0196  92.5017 0000833 105.3580 243.2214  1.00272304 14908
CIEL-2                  
1 33453U 08063A   18016.02337590  .00000060  00000-0  00000+0 0  9995
2 33453   0.0316 295.6131 0002720 359.3369  60.0060  1.00272302 33326
EUTELSAT HOT BIRD 13C   
1 33459U 08065A   18014.64693388  .00000088  00000-0  00000-0 0  9990
2 33459   0.0750  68.0863 0001894 246.0675  45.8138  1.00274548 16536
EUTELSAT 48D            
1 33460U 08065B   18015.82129366  .00000125  00000-0  00000-0 0  9995
2 33460   0.0842 311.5979 0002252 332.8070 174.5894  1.00274108 33198
FENGYUN 2E              
1 33463U 08066A   18015.83088727 -.00000199  00000-0  00000+0 0  9996
2 33463   2.5862  68.3574 0005542 236.8474 195.6285  1.00266890 33269
EXPRESS-AM44            
1 33595U 09007A   18016.01295959 -.00000087  00000-0  00000+0 0  9992
2 33595   0.0223 188.7406 0001228 174.3604 105.9563  1.00272847 32731
NSS-9                   
1 33749U 09008A   18015.72390362  .00000074  00000-0  00000-0 0  9991
2 33749   0.0233 343.9674 0001644 316.6942 258.1066  1.00273626 32693
EUTELSAT 33E            
1 33750U 09008B   18016.10115449  .00000158  00000-0  00000+0 0  9999
2 33750   0.0269 353.7152 0004347 266.3874 284.8518  1.00271624 32775
TELSTAR 11N             
1 34111U 09009A   18016.14908667 -.00000249  00000-0  00000+0 0  9990
2 34111   0.0274  60.0050 0002242 220.4602 211.1871  1.00269935 32597
EUTELSAT 10A            
1 34710U 09016A   18016.11090854  .00000070  00000-0  00000+0 0  9991
2 34710   0.0629  14.8646 0005456 282.9843 227.5438  1.00270895 32142
SES-7 (PROTOSTAR 2)     
1 34941U 09027A   18016.08174146 -.00000343  00000-0  00000+0 0  9996
2 34941   0.0246  64.1782 0002970 219.6951 329.2526  1.00270127 31793
MEASAT-3A               
1 35362U 09032A   18015.42685054 -.00000240  00000-0  00000+0 0  9998
2 35362   0.0212  21.4158 0002260 304.9262  33.6269  1.00271089 31408
GOES 14                 
1 35491U 09033A   18014.97182786 -.00000091  00000-0  00000-0 0  9990
2 35491   0.0797 267.2906 0009586 334.8244 117.7711  1.00272056 31322
SIRIUS FM-5             
1 35493U 09034A   18015.77962838 -.00000198  00000-0  00000-0 0  9994
2 35493   0.0171 336.2533 0001111  57.2099 276.2121  1.00271169 15909
TERRESTAR-1             
1 35496U 09035A   18015.95910233 -.00000050  00000-0  00000+0 0  9996
2 35496   2.7384 349.2584 0003159 315.9073  44.4239  1.00271742 31334
ASIASAT 5               
1 35696U 09042A   18015.92248207 -.00000305  00000-0  00000-0 0  9992
2 35696   0.0247  77.2755 0001405 207.3538 263.2490  1.00269418 30847
JCSAT-RA (JCSAT-12)     
1 35755U 09044A   18015.32592254 -.00000344  00000-0  00000-0 0  9991
2 35755   0.0492  52.9721 0001186 289.3285  17.6786  1.00272484 30782
OPTUS D3                
1 35756U 09044B   18015.78130469 -.00000146  00000-0  00000+0 0  9997
2 35756   0.0473 319.2153 0003726 358.0437 235.1851  1.00270335 30801
PALAPA D                
1 35812U 09046A   18015.36742264 -.00000357  00000-0  00000-0 0  9993
2 35812   0.0326  86.0478 0002233 252.9555  20.9708  1.00270740 30851
NIMIQ 5                 
1 35873U 09050A   18016.40245726 -.00000255  00000-0  00000+0 0  9998
2 35873   0.0284 294.8542 0002473  18.3267 234.7746  1.00271465 30539
AMAZONAS 2              
1 35942U 09054A   18016.40272405 -.00000281  00000-0  00000+0 0  9992
2 35942   0.0312 143.6910 0001182  88.7914 327.2657  1.00273236 30351
COMSATBW-1              
1 35943U 09054B   18016.15601484  .00000026  00000-0  00000+0 0  9994
2 35943   0.0872  75.0348 0002593 237.9424 281.7191  1.00275165 30436
NSS-12                  
1 36032U 09058A   18016.06322212  .00000073  00000-0  00000+0 0  9999
2 36032   0.0134   3.2066 0002479 305.9557 246.0209  1.00272516 30108
THOR 6                  
1 36033U 09058B   18015.87407059 -.00000008  00000-0  00000-0 0  9991
2 36033   0.0199 133.8493 0001543 173.8280 121.3862  1.00272606 30201
INTELSAT 14 (IS-14)     
1 36097U 09064A   18015.80492840 -.00000272  00000-0  00000+0 0  9995
2 36097   0.0322  89.0888 0002092 204.8167  66.0559  1.00271931 29888
EUTELSAT 36B            
1 36101U 09065A   18015.86851556  .00000157  00000-0  00000-0 0  9993
2 36101   0.0626  15.8453 0004396 287.6494 160.3066  1.00271068 29902
INTELSAT 15 (IS-15)     
1 36106U 09067A   18015.93729826 -.00000184  00000-0  00000-0 0  9993
2 36106   0.0117 350.9644 0002272 321.4569 225.4732  1.00271780 10485
DIRECTV 12              
1 36131U 09075A   18016.19212671 -.00000101  00000-0  00000+0 0  9992
2 36131   0.0042 235.0310 0000123 317.2540 249.6375  1.00270910 29562
BEIDOU 3                
1 36287U 10001A   18015.85283758 -.00000283  00000-0  00000-0 0  9993
2 36287   1.4903  13.7433 0002720 205.8386 342.6752  1.00270031 29340
RADUGA-1M 2             
1 36358U 10002A   18015.93729826 -.00000182  00000-0  00000-0 0  9991
2 36358   0.0074 304.0883 0002073  45.4875 188.1583  1.00270497 19283
SDO                     
1 36395U 10005A   18015.46662321 -.00000074  00000-0  00000-0 0  9999
2 36395  29.0153 136.6382 0001201 121.6126 282.6077  1.00269778 29205
INTELSAT 16 (IS-16)     
1 36397U 10006A   18016.27975380 -.00000243  00000-0  00000+0 0  9991
2 36397   0.0173  76.4256 0001990 240.8562 182.8811  1.00271486 28915
GOES 15                 
1 36411U 10008A   18015.05616672  .00000087  00000-0  00000-0 0  9997
2 36411   0.0876 256.4420 0002277 287.8665 175.6730  1.00284927 28856
ECHOSTAR 14             
1 36499U 10010A   18015.80396495  .00000002  00000-0  00000-0 0  9994
2 36499   0.0191  50.7794 0002757 240.1187 354.8244  1.00270275 28701
SES-1                   
1 36516U 10016A   18016.19212671 -.00000112  00000-0  00000+0 0  9998
2 36516   0.0116   5.0910 0001913 303.2082 135.4115  1.00271593 28310
ASTRA 3B                
1 36581U 10021A   18015.81587194  .00000139  00000-0  00000+0 0  9997
2 36581   0.0292  31.1484 0003359 268.3158 132.9147  1.00271923 27823
COMSATBW-2              
1 36582U 10021B   18015.81560514  .00000090  00000-0  00000-0 0  9992
2 36582   0.0135  45.0220 0002041 275.2898 101.6676  1.00271499 28163
BEIDOU 4                
1 36590U 10024A   18015.15847631 -.00000355  00000-0  00000-0 0  9994
2 36590   1.5202  34.9362 0007483 308.1379 299.0381  1.00275762 27949
BADR-5                  
1 36592U 10025A   18015.81593293  .00000146  00000-0  00000-0 0  9999
2 36592   0.0196 112.9272 0002461 135.1688 186.8108  1.00273464 22386
COMS 1                  
1 36744U 10032A   18015.80236910 -.00000343  00000-0  00000-0 0  9995
2 36744   0.0443 209.8491 0000218 136.7854 185.6121  1.00269969 20261
ARABSAT-5A              
1 36745U 10032B   18016.10604913  .00000155  00000-0  00000+0 0  9991
2 36745   0.0496   9.4450 0003519 293.8733 240.8365  1.00268993 27804
ECHOSTAR 15             
1 36792U 10034A   18015.85396351 -.00000279  00000-0  00000-0 0  9999
2 36792   0.0231 320.6379 0001902 345.0005  55.2720  1.00267538 27523
NILESAT 201             
1 36830U 10037A   18015.53938116 -.00000056  00000-0  00000-0 0  9994
2 36830   0.0606 209.4110 0003355 103.1317 349.5634  1.00271254 27536
RASCOM-QAF 1R           
1 36831U 10037B   18015.67215161  .00000020  00000-0  00000-0 0  9998
2 36831   0.0179  54.5019 0006435 239.9377  65.4763  1.00270761 27477
